PICO-02A021             
1 60538U 24149BY  26130.02019486  .00003623  00000+0  27444-3 0  9991
2 60538  97.6765 209.1924 0006386 136.9512 223.2213 15.02893580 94000
ICEYE-X43               
1 60539U 24149BZ  26130.19835552  .00001680  00000+0  14082-3 0  9995
2 60539  97.6770 207.6878 0004167 209.1015 150.9977 14.99736977 94424
HAWK-10A                
1 60540U 24149CA  26130.18948008  .00000510  00000+0  50085-4 0  9992
2 60540  97.6898 206.7557 0003265 175.0404 185.0850 14.96394740 94303
UMBRA-09                
1 60541U 24149CB  26130.21608367  .00007996  00000+0  40931-3 0  9991
2 60541  97.6960 216.8111 0001465 137.8680 222.2665 15.16892376 94965
QPS-SAR-8 (AMATERU-IV)  
1 60542U 24149CC  26130.20255186  .00002862  00000+0  21302-3 0  9996
2 60542  97.6667 209.6840 0002140 202.8524 157.2607 15.03750703 94562
ARCTIC WEATHER SATELLITE
1 60543U 24149CD  26130.20567964  .00000586  00000+0  66627-4 0  9998
2 60543  97.6808 201.7538 0001357 189.9349 170.1842 14.89792133 93645
CAPELLA-15 (ACADIA-5)   
1 60544U 24149CE  26130.17334314  .00000616  00000+0  65510-4 0  9990
2 60544  97.6777 204.0213 0004017 185.4995 174.6180 14.92416940 94188
HAWK-10B                
1 60545U 24149CF  26130.18933382  .00000521  00000+0  50985-4 0  9997
2 60545  97.6818 206.1491 0004570 206.4136 153.6853 14.96395105 94302
ICEYE-X39               
1 60546U 24149CG  26130.18101455  .00001934  00000+0  16151-3 0  9991
2 60546  97.6826 207.7194 0002072 179.3681 180.7545 14.99698033 94428
UMBRA-10                
1 60547U 24149CH  26130.21563597  .00008587  00000+0  43922-3 0  9992
2 60547  97.6963 216.8352 0002323 113.3165 246.8312 15.16893681 94974
ICEYE-X33               
1 60548U 24149CJ  26130.16829897  .00003297  00000+0  26365-3 0  9990
2 60548  97.7158 209.5452 0001022 345.5672  14.5522 15.00900181 94508
ICEYE-X40               
1 60549U 24149CK  26130.22499882  .00001787  00000+0  15700-3 0  9998
2 60549  97.6809 207.3327 0004667 181.8001 178.3205 14.97818012 94393
SATELIOT_1              
1 60550U 24149CL  26130.15213209  .00002446  00000+0  21247-3 0  9995
2 60550  97.6742 206.6858 0006584 187.0302 173.0829 14.97909840 94376
BRO-14                  
1 60551U 24149CM  26130.20725784  .00000516  00000+0  50967-4 0  9996
2 60551  97.6873 206.6675 0005933 214.0116 146.0726 14.96101844 94317
SATELIOT_3              
1 60552U 24149CN  26130.19435731  .00000910  00000+0  82215-4 0  9994
2 60552  97.6824 207.4848 0004461 198.8096 161.2962 14.97897129 94394
BRO-15                  
1 60553U 24149CP  26130.18873718  .00000036  00000+0  82519-5 0  9992
2 60553  97.6806 206.2871 0007326 205.9803 154.1051 14.96063991 94321
UM5-RIBAT               
1 60554U 24149CQ  26130.20606405  .00001787  00000+0  14518-3 0  9999
2 60554  97.6658 208.5185 0003002 121.7106 238.4411 15.00861135 94494
UM5-EOSAT               
1 60555U 24149CR  26130.18305787  .00001794  00000+0  14423-3 0  9999
2 60555  97.6651 209.3960 0006442 228.4030 131.6642 15.01265207 94512
LASARSAT                
1 62391U 24247Q   26129.37883651  .00026150  00000+0  56666-3 0  9996
2 62391  44.9740 119.8729 0004505  90.2978 269.8427 15.44007397 77313
CROCUBE                 
1 62394U 24247T   26130.00143748  .00024854  00000+0  51051-3 0  9999
2 62394  44.9719 114.2849 0004189  97.3886 262.7480 15.45608845 77438
TEVEL2-4                
1 63213U 25052D   26129.69298768  .00012689  00000+0  39678-3 0  9995
2 63213  97.3941  26.0540 0001173 182.4457 177.6780 15.33281085 64215
TEVEL2-5                
1 63214U 25052E   26129.97049089  .00012088  00000+0  37990-3 0  9995
2 63214  97.3940  26.2896 0001210 180.6979 179.4262 15.33133002 64256
TEVEL2-6                
1 63215U 25052F   26130.17770307  .00011057  00000+0  34812-3 0  9999
2 63215  97.3942  26.4817 0001286 188.6956 171.4264 15.33099860 64280
TEVEL2-1                
1 63217U 25052H   26130.19417095  .00010690  00000+0  34181-3 0  9996
2 63217  97.3913  26.1658 0000754 214.8521 145.2672 15.32612197 64273
TEVEL2-3                
1 63218U 25052J   26130.19007638  .00010909  00000+0  34823-3 0  9991
2 63218  97.3917  26.1793 0000727 216.1267 143.9926 15.32659740 64272
TEVEL2-2                
1 63219U 25052K   26130.19466090  .00010617  00000+0  33945-3 0  9993
2 63219  97.3917  26.1683 0000751 220.7303 139.3883 15.32618210 64278
TEVEL2-9                
1 63237U 25052AD  26130.18978407  .00010041  00000+0  34030-3 0  9999
2 63237  97.3975  25.6178 0004046 279.6718  80.4066 15.30746403 64216
TEVEL2-7                
1 63238U 25052AE  26129.70074179  .00010919  00000+0  37295-3 0  9999
2 63238  97.3979  25.0611 0004165 282.2953  77.7822 15.30471471 64130
TEVEL2-8                
1 63239U 25052AF  26130.16623949  .00009216  00000+0  31535-3 0  9996
2 63239  97.3981  25.5032 0004109 280.7377  79.3401 15.30461893 64203
HADES-ICM               
1 63492U 25052BN  26129.70564069  .00570308  12819-3  18595-2 0  9992
2 63492  97.3748  33.5239 0008182 165.6972 194.4534 15.90607553 64713
